[Satellite]
VERSION=1.1
NAME=O3B FM8
NICKNAME=O3B FM8
TLE1=1 40082U 14038D   17186.11836115 -.00000027  00000-0  00000-0 0  9999
TLE2=2 40082   0.0422 355.5072 0003642  94.7798 269.7534  5.00116145 54547
